{
  "type": "FeatureCollection",
  "features": [
    {
      "type": "Feature",
      "properties": {
        "norad_id": 31841,
        "name": "FENGYUN 1C DEB",
        "group": "fengyun-1c-debris",
        "lat": 5.955685975006274,
        "lon": -19.918577841880165,
        "alt_km": 991.0119086595842,
        "timestamp": "2025-12-16T17:51:11.216163+00:00",
        "meta_object_name": "FENGYUN 1C DEB",
        "meta_object_id": "1999-025CJF",
        "meta_epoch": "2025-12-15T05:57:44.822880",
        "meta_mean_motion": 14.03592641,
        "meta_eccentricity": 0.03085238,
        "meta_inclination": 98.4166,
        "meta_ra_of_asc_node": 157.8094,
        "meta_arg_of_pericenter": 298.3378,
        "meta_mean_anomaly": 246.4475,
        "meta_ephemeris_type": 0,
        "meta_classification_type": "U",
        "meta_norad_cat_id": 31841,
        "meta_element_set_no": 999,
        "meta_rev_at_epoch": 59374,
        "meta_bstar": 0.0012677307,
        "meta_mean_motion_dot": 2.992e-05,
        "meta_mean_motion_ddot": 0,
        "tle_line1": "1 31841U 99025CJF 25349.24843545  .00002992  00000+0  12677-2 0  9996",
        "tle_line2": "2 31841  98.4166 157.8094 0308523 298.3378 246.4475 14.03592641593743"
      },
      "geometry": {
        "type": "Point",
        "coordinates": [
          -19.918577841880165,
          5.955685975006274
        ]
      }
    },
    {
      "type": "Feature",
      "properties": {
        "norad_id": 31843,
        "name": "FENGYUN 1C DEB",
        "group": "fengyun-1c-debris",
        "lat": 77.94893618744631,
        "lon": -118.90043239757611,
        "alt_km": 1161.6365406486993,
        "timestamp": "2025-12-16T17:51:11.216174+00:00",
        "meta_object_name": "FENGYUN 1C DEB",
        "meta_object_id": "1999-025CJH",
        "meta_epoch": "2025-12-14T02:28:07.998240",
        "meta_mean_motion": 13.33901343,
        "meta_eccentricity": 0.06401097,
        "meta_inclination": 99.282,
        "meta_ra_of_asc_node": 288.6825,
        "meta_arg_of_pericenter": 350.7326,
        "meta_mean_anomaly": 8.2432,
        "meta_ephemeris_type": 0,
        "meta_classification_type": "U",
        "meta_norad_cat_id": 31843,
        "meta_element_set_no": 999,
        "meta_rev_at_epoch": 64714,
        "meta_bstar": 0.0071567737,
        "meta_mean_motion_dot": 0.00011463,
        "meta_mean_motion_ddot": 0,
        "tle_line1": "1 31843U 99025CJH 25348.10287035  .00011463  00000+0  71568-2 0  9995",
        "tle_line2": "2 31843  99.2820 288.6825 0640109 350.7326   8.2432 13.33901343647147"
      },
      "geometry": {
        "type": "Point",
        "coordinates": [
          -118.90043239757611,
          77.94893618744631
        ]
      }
    },
    {
      "type": "Feature",
      "properties": {
        "norad_id": 31844,
        "name": "FENGYUN 1C DEB",
        "group": "fengyun-1c-debris",
        "lat": -26.738464348484495,
        "lon": -14.680475069904045,
        "alt_km": 757.7935522059179,
        "timestamp": "2025-12-16T17:51:11.216184+00:00",
        "meta_object_name": "FENGYUN 1C DEB",
        "meta_object_id": "1999-025CJJ",
        "meta_epoch": "2025-12-13T22:19:33.784896",
        "meta_mean_motion": 14.19755878,
        "meta_eccentricity": 0.01034294,
        "meta_inclination": 100.3032,
        "meta_ra_of_asc_node": 336.7917,
        "meta_arg_of_pericenter": 347.7797,
        "meta_mean_anomaly": 12.0868,
        "meta_ephemeris_type": 0,
        "meta_classification_type": "U",
        "meta_norad_cat_id": 31844,
        "meta_element_set_no": 999,
        "meta_rev_at_epoch": 95349,
        "meta_bstar": 0.0011790432,
        "meta_mean_motion_dot": 2.577e-05,
        "meta_mean_motion_ddot": 0,
        "tle_line1": "1 31844U 99025CJJ 25347.93025214  .00002577  00000+0  11790-2 0  9992",
        "tle_line2": "2 31844 100.3032 336.7917 0103429 347.7797  12.0868 14.19755878953490"
      },
      "geometry": {
        "type": "Point",
        "coordinates": [
          -14.680475069904045,
          -26.738464348484495
        ]
      }
    },
    {
      "type": "Feature",
      "properties": {
        "norad_id": 31850,
        "name": "FENGYUN 1C DEB",
        "group": "fengyun-1c-debris",
        "lat": 22.573524810952804,
        "lon": 32.351975248162134,
        "alt_km": 432.12911888917915,
        "timestamp": "2025-12-16T17:51:11.216195+00:00",
        "meta_object_name": "FENGYUN 1C DEB",
        "meta_object_id": "1999-025CJQ",
        "meta_epoch": "2025-12-14T09:23:04.476192",
        "meta_mean_motion": 15.33433546,
        "meta_eccentricity": 0.00762245,
        "meta_inclination": 98.5734,
        "meta_ra_of_asc_node": 33.2199,
        "meta_arg_of_pericenter": 83.7911,
        "meta_mean_anomaly": 277.2005,
        "meta_ephemeris_type": 0,
        "meta_classification_type": "U",
        "meta_norad_cat_id": 31850,
        "meta_element_set_no": 999,
        "meta_rev_at_epoch": 65854,
        "meta_bstar": 0.0030655456,
        "meta_mean_motion_dot": 0.00109983,
        "meta_mean_motion_ddot": 0,
        "tle_line1": "1 31850U 99025CJQ 25348.39102403  .00109983  00000+0  30655-2 0  9996",
        "tle_line2": "2 31850  98.5734  33.2199 0076224  83.7911 277.2005 15.33433546658540"
      },
      "geometry": {
        "type": "Point",
        "coordinates": [
          32.351975248162134,
          22.573524810952804
        ]
      }
    },
    {
      "type": "Feature",
      "properties": {
        "norad_id": 31854,
        "name": "FENGYUN 1C DEB",
        "group": "fengyun-1c-debris",
        "lat": 40.29404050793308,
        "lon": -13.755344917528266,
        "alt_km": 878.7482964423934,
        "timestamp": "2025-12-16T17:51:11.216205+00:00",
        "meta_object_name": "FENGYUN 1C DEB",
        "meta_object_id": "1999-025CJU",
        "meta_epoch": "2025-12-15T19:24:31.652352",
        "meta_mean_motion": 14.03078025,
        "meta_eccentricity": 0.00722907,
        "meta_inclination": 98.8474,
        "meta_ra_of_asc_node": 352.9243,
        "meta_arg_of_pericenter": 132.6931,
        "meta_mean_anomaly": 228.0355,
        "meta_ephemeris_type": 0,
        "meta_classification_type": "U",
        "meta_norad_cat_id": 31854,
        "meta_element_set_no": 999,
        "meta_rev_at_epoch": 69315,
        "meta_bstar": 0.00055378853,
        "meta_mean_motion_dot": 8.39e-06,
        "meta_mean_motion_ddot": 0,
        "tle_line1": "1 31854U 99025CJU 25349.80869968  .00000839  00000+0  55379-3 0  9994",
        "tle_line2": "2 31854  98.8474 352.9243 0072290 132.6931 228.0355 14.03078025693155"
      },
      "geometry": {
        "type": "Point",
        "coordinates": [
          -13.755344917528266,
          40.29404050793308
        ]
      }
    },
    {
      "type": "Feature",
      "properties": {
        "norad_id": 31857,
        "name": "FENGYUN 1C DEB",
        "group": "fengyun-1c-debris",
        "lat": -65.10538043190172,
        "lon": 32.37910414287399,
        "alt_km": 824.5409620100581,
        "timestamp": "2025-12-16T17:51:11.216216+00:00",
        "meta_object_name": "FENGYUN 1C DEB",
        "meta_object_id": "1999-025CJX",
        "meta_epoch": "2025-12-15T21:00:25.166592",
        "meta_mean_motion": 13.61938441,
        "meta_eccentricity": 0.03090507,
        "meta_inclination": 96.1875,
        "meta_ra_of_asc_node": 18.3078,
        "meta_arg_of_pericenter": 273.3355,
        "meta_mean_anomaly": 83.2492,
        "meta_ephemeris_type": 0,
        "meta_classification_type": "U",
        "meta_norad_cat_id": 31857,
        "meta_element_set_no": 999,
        "meta_rev_at_epoch": 61672,
        "meta_bstar": 0.0015742297,
        "meta_mean_motion_dot": 1.644e-05,
        "meta_mean_motion_ddot": 0,
        "tle_line1": "1 31857U 99025CJX 25349.87529128  .00001644  00000+0  15742-2 0  9999",
        "tle_line2": "2 31857  96.1875  18.3078 0309050 273.3355  83.2492 13.61938441616724"
      },
      "geometry": {
        "type": "Point",
        "coordinates": [
          32.37910414287399,
          -65.10538043190172
        ]
      }
    },
    {
      "type": "Feature",
      "properties": {
        "norad_id": 31861,
        "name": "FENGYUN 1C DEB",
        "group": "fengyun-1c-debris",
        "lat": 18.202894888631025,
        "lon": 8.293688045853093,
        "alt_km": 834.3353697190269,
        "timestamp": "2025-12-16T17:51:11.216226+00:00",
        "meta_object_name": "FENGYUN 1C DEB",
        "meta_object_id": "1999-025CKB",
        "meta_epoch": "2025-11-30T18:20:57.621120",
        "meta_mean_motion": 13.30200627,
        "meta_eccentricity": 0.04966148,
        "meta_inclination": 102.3423,
        "meta_ra_of_asc_node": 165.0071,
        "meta_arg_of_pericenter": 230.9853,
        "meta_mean_anomaly": 124.6046,
        "meta_ephemeris_type": 0,
        "meta_classification_type": "U",
        "meta_norad_cat_id": 31861,
        "meta_element_set_no": 999,
        "meta_rev_at_epoch": 66608,
        "meta_bstar": 0.0034105388,
        "meta_mean_motion_dot": 3.105e-05,
        "meta_mean_motion_ddot": 0,
        "tle_line1": "1 31861U 99025CKB 25334.76455580  .00003105  00000+0  34105-2 0  9994",
        "tle_line2": "2 31861 102.3423 165.0071 0496614 230.9853 124.6046 13.30200627666089"
      },
      "geometry": {
        "type": "Point",
        "coordinates": [
          8.293688045853093,
          18.202894888631025
        ]
      }
    }
  ]
}